Id,Name,Country,City,Latitude,Longitude,Address
2319280000000.0,Mokinba Hotels King,IT,Milan,45.4656023,9.1778675,"20123 Milano MI, Italia, Milano, Lombardia 20123, ITA"
2319280000000.0,Idea Hotel Milano San Siro,IT,Milan,45.4720654,9.0777871,"Via Gaetano Airaghi, 127, 20019 Settimo Milanese MI, Italia, Settimo Milanese, Lombardia 20019, ITA"
2396590000000.0,Bulgari Hotel Milano,IT,Milan,45.4701334,9.1897405,"Via Fratelli Gabba, 7, 20121 Milano MI, Italia, Milano, Lombardia 20121, ITA"
2405180000000.0,Grand Hotel et de Milan,IT,Milan,45.4699058,9.1925024,"Via Alessandro Manzoni, 29, 20121 Milano MI, Italia, Milano, Lombardia 20121, ITA"
2413770000000.0,Qualys Hotel Nasco,IT,Milan,45.4848809,9.1596461,"Via Leon Battista Alberti, 20149 Milano MI, Italia, Milano, Lombardia 20149, ITA"
2542620000000.0,Meli Milano,IT,Milan,45.4792738,9.1459546,"Via Masaccio, 19, 20149 Milano MI, Italia, Milano, Lombardia 20149, ITA"
2817500000000.0,Admiral Hotel,IT,Milan,45.480515,9.160063,"Via Domodossola, 16, 20145 Milano MI, Italia, Milano, Lombardia 20145, ITA"
2843270000000.0,Mokinba Hotels Baviera,IT,Milan,45.4782808,9.1997755,"Via Panfilo Castaldi, 7, 20124 Milano MI, Italia, Milano, Lombardia 20124, ITA"
2877630000000.0,Novotel Milano Linate Aeroporto,IT,Milan,45.4481878,9.2570459,"Via Mecenate, 20138 Milano MI, Italia, Milano, Lombardia 20138, ITA"
2954940000000.0,Radisson Blu Hotel Milan,IT,Milan,45.500667,9.1445874,"Via Villapizzone, 24, 20156 Milano MI, Italia, Milano, Lombardia 20156, ITA"
3066610000000.0,IH Hotels Milano Watt 13,IT,Milan,45.443791,9.152947,"Via Giacomo Watt, 15, 20143 Milano MI, Italia, Milano, Lombardia 20143, ITA"
3135330000000.0,Senato Hotel Milano,IT,Milan,45.4714062,9.1965303,"Via Senato, 22, 20121 Milano MI, Italia, Milano, Lombardia 20121, ITA"
3152510000000.0,Best Western Hotel Major,IT,Milan,45.4472099,9.2090967,"Viale Isonzo, 2, 20135 Milano MI, Italia, Milano, Lombardia 20135, ITA"
3195460000000.0,TownHouse Galleria,IT,Milan,45.4657842,9.1895321,"Via Silvio Pellico, 8, 20121 Milano MI, Italia, Milano, Lombardia 20121, ITA"
3332890000000.0,Nu Hotel,IT,Milan,45.4911829,9.2393614,"Via Feltre, 30, 20132 Milano MI, Italia, Milano, Lombardia 20132, ITA"
3393020000000.0,Leonardo Hotel Milan City Center,IT,Milan,45.482442,9.1756982,"Via Messina, 10, 20154 Milano MI, Italia, Milano, Lombardia 20154, ITA"
1717990000000.0,Hotel Crivi s,IT,Milan,45.4529643,9.1962217,"Corso di Porta Vigentina, 46, 20122 Milano MI, Italia, Milano, Lombardia 20122, ITA"
1760940000000.0,Palazzo Segreti,IT,Milan,45.4672309,9.184154,"Via San Tomaso, 8B, 20121 Milano MI, Italia, Milano, Lombardia 20121, ITA"
1769530000000.0,TownHouse Duomo,IT,Milan,45.4648822,9.1893265,"Piazza del Duomo, 19A, 20121 Milano MI, Italia, Milano, Lombardia 20121, ITA"
1778120000000.0,NH Milano Machiavelli,IT,Milan,45.4776167,9.2016244,"Via Lazzaretto, 5, 20124 Milano MI, Italia, Milano, Lombardia 20124, ITA"
1881200000000.0,Mandarin Oriental Milan,IT,Milan,45.4694772,9.1909325,"Via Monte di Piet√†, 14, 20121 Milano MI, Italia, Milano, Lombardia 20121, ITA"
1915560000000.0,Hotel Wagner,IT,Milan,45.4684949,9.1550355,"Via Michelangelo Buonarroti, 13, 20145 Milano MI, Italia, Milano, Lombardia 20145, ITA"
1975680000000.0,Hotel Sunflower,IT,Milan,45.498503,9.1664111,"Piazzale Lugano, 20158 Milano MI, Italia, Milano, Lombardia 20158, ITA"
2027220000000.0,Best Western Hotel City,IT,Milan,45.4858877,9.2042827,"Galleria delle Carrozze, 20124 Milano MI, Italia, Milano, Lombardia 20124, ITA"
2061580000000.0,Hotel Boutique Duomo,IT,Milan,45.4909585,9.1614268,"Via Francesco Caracciolo, 62, 20155 Milano MI, Italia, Milano, Lombardia 20155, ITA"
2070170000000.0,Hotel Manzoni,IT,Milan,45.470238,9.195347,"Via Santo Spirito, 20, 20121 Milano MI, Italia, Milano, Lombardia 20121, ITA"
2130300000000.0,Best Western Atlantic Hotel,IT,Milan,45.4830211,9.2033246,"Via Napo Torriani, 24, 20124 Milano MI, Italia, Milano, Lombardia 20124, ITA"
2233380000000.0,Antares Hotel Accademia,IT,Milan,45.4921089,9.1476806,"Viale Certosa, 68, 20155 Milano MI, Italia, Milano, Lombardia 20155, ITA"
2241970000000.0,AC Hotel Milano a Marriott Lifestyle Hotel,IT,Milan,45.4851799,9.1831189,"Via Enrico Tazzoli, 2, 20154 Milano MI, Italia, Milano, Lombardia 20154, ITA"
2250560000000.0,Glam Milano,IT,Milan,45.4838504,9.2034067,"Piazza Duca d'Aosta, 4, 20124 Milano MI, Italia, Milano, Lombardia 20124, ITA"
2259150000000.0,Sheraton Diana Majestic,IT,Milan,45.4736557,9.2066824,"Viale Piave, 42, 20129 Milano MI, Italia, Milano, Lombardia 20129, ITA"
2267740000000.0,IH Hotels Milano Puccini,IT,Milan,45.4794406,9.2096756,"Corso Buenos Aires, 33, 20124 Milano MI, Italia, Milano, Lombardia 20124, ITA"
2302100000000.0,Baglioni Hotel Carlton The Leading Hotels of the World,IT,Milan,45.4691663,9.1984454,"Via Senato, 5, 20121 Milano MI, Italia, Milano, Lombardia 20121, ITA"
2310690000000.0,UNA Hotel Mediterraneo,IT,Milan,45.451873,9.20548,"20135 Milano MI, Italia, Milano, Lombardia 20135, ITA"
2405180000000.0,Hotel Mercure Milano Solari,IT,Milan,45.4565757,9.1684824,"Via Pietro Orseolo, 1, 20144 Milano MI, Italia, Milano, Lombardia 20144, ITA"
2473900000000.0,Sina De La Ville,IT,Milan,45.465957,9.192297,"Via Ulrico Hoepli, 4, 20121 Milano MI, Italia, Milano, Lombardia 20121, ITA"
2534030000000.0,Best Western Plus Hotel Galles,IT,Milan,45.4805847,9.2117326,"Via Federico Ozanam, 1, 20129 Milano MI, Italia, Milano, Lombardia 20129, ITA"
2542620000000.0,Ibis Styles Milano Palmanova,IT,Milan,45.5045259,9.246461,"Via Palmanova, 153/1, 20132 Milano MI, Italia, Milano, Lombardia 20132, ITA"
2551210000000.0,STRAF a Member of Design Hotels,IT,Milan,45.465237,9.191247,"Via San Raffaele, 3, 20121 Milano MI, Italia, Milano, Lombardia 20121, ITA"
2568390000000.0,IH Hotels Milano Gioia,IT,Milan,45.49952,9.206138,"Via della Giustizia, 10D, 20125 Milano MI, Italia, Milano, Lombardia 20125, ITA"
2723010000000.0,NH Milano Grand Hotel Verdi,IT,Milan,45.4814923,9.192023,"Via Melchiorre Gioia, 8, 20124 Milano MI, Italia, Milano, Lombardia 20124, ITA"
2731600000000.0,Hotel Berna,IT,Milan,45.4826692,9.2034371,"Via Napo Torriani, 18, 20124 Milano MI, Italia, Milano, Lombardia 20124, ITA"
2774550000000.0,Sina The Gray,IT,Milan,45.4655368,9.1914986,"Galleria Ciro Fontana, 3, 20121 Milano MI, Italia, Milano, Lombardia 20121, ITA"
2817500000000.0,Nhow Milan,IT,Milan,45.4510425,9.1606536,"Via Tortona, 35, 20144 Milano MI, Italia, Milano, Lombardia 20144, ITA"
2826090000000.0,TownHouse 33,IT,Milan,45.4693349,9.2142383,"Via Carlo Goldoni, 33, 20129 Milano MI, Italia, Milano, Lombardia 20129, ITA"
2997890000000.0,Starhotels Anderson,IT,Milan,45.4852549,9.2069501,"Piazza Luigi di Savoia, 20, 20124 Milano MI, Italia, Milano, Lombardia 20124, ITA"
3066610000000.0,Hotel La Spezia Gruppo MiniHotel,IT,Milan,45.4408963,9.1728003,"Via Spezia, 25, 20142 Milano MI, Italia, Milano, Lombardia 20142, ITA"
3075200000000.0,Best Western Plus Hotel Felice Casati,IT,Milan,45.4787357,9.2041131,"Via Felice Casati, 18, 20124 Milano MI, Italia, Milano, Lombardia 20124, ITA"
3118150000000.0,Atahotel Linea Uno,IT,Milan,45.50054,9.2208089,"Viale Monza, 139, 20127 Milano MI, Italia, Milano, Lombardia 20127, ITA"
3135330000000.0,Room Mate Giulia,IT,Milan,45.4651371,9.1895249,"Via Silvio Pellico, 2, 20121 Milano MI, Italia, Milano, Lombardia 20121, ITA"
3178280000000.0,Hotel Romana Residence,IT,Milan,45.4572218,9.1937008,"Corso di Porta Romana, 64, 20122 Milano MI, Italia, Milano, Lombardia 20122, ITA"
3393020000000.0,TownHouse 12,IT,Milan,45.4844028,9.1673528,"Piazza Gerusalemme, 20154 Milano MI, Italia, Milano, Lombardia 20154, ITA"
