Id,Name,Country,City,Latitude,Longitude,Address
2568390000000.0,Hilton London Euston,GB,London,51.5265189,-0.1303689,"19 Upper Woburn Place, London, WC1H 0, United Kingdom, London, England WC1H 0, GBR"
2602750000000.0,Old Ship Inn Hackney,GB,London,51.5458476,-0.0554113,"299 Mare Street, London, E8 1EJ, United Kingdom, London, England E8 1EJ, GBR"
2602750000000.0,United Lodge Hotel and Apartments,GB,London,51.5743549,-0.0977567,"370 Green Lanes, London, N4 1, United Kingdom, London, England N4 1, GBR"
2611340000000.0,Park Plaza Victoria London,GB,London,51.4942539,-0.1414756,"8 Gillingham Street, London, SW1V 1HJ, United Kingdom, London, England SW1V 1HJ, GBR"
2637110000000.0,St James Hotel Club Mayfair,GB,London,51.5061587,-0.1402803,"SW1A 1LS, London, England, United Kingdom, London, England SW1A 1LS, GBR"
2645700000000.0,Grange Wellington Hotel,GB,London,51.4944319,-0.1363756,"SW1P 2PA, London, England, United Kingdom, London, England SW1P 2PA, GBR"
2688650000000.0,Washington Mayfair Hotel,GB,London,51.5060237,-0.151078,"4 Curzon Square, London, W1J 7FW, United Kingdom, London, England W1J 7FW, GBR"
2705830000000.0,Portobello House,GB,London,51.5199224,-0.2116636,"221 Ladbroke Grove, London, W10 6, United Kingdom, London, England W10 6, GBR"
2765960000000.0,Staybridge Suites London Vauxhall,GB,London,51.4891226,-0.1205639,"London, SE11 5, United Kingdom, London, England SE11 5, GBR"
2800320000000.0,The Chamberlain,GB,London,51.5122457,-0.0757326,"130-135 Minories, London, EC3N 1DD, United Kingdom, London, England EC3N 1DD, GBR"
2808910000000.0,Crowne Plaza London Kings Cross,GB,London,51.5263854,-0.1136042,"51 Calthorpe Street, London, WC1X 0HH, United Kingdom, London, England WC1X 0HH, GBR"
2860450000000.0,Strand Palace Hotel,GB,London,51.5110993,-0.1208673,"369 Strand, London, WC2E 0JF, United Kingdom, London, England WC2E 0JF, GBR"
2911990000000.0,InterContinental London Park Lane,GB,London,51.5038632,-0.1504132,"1 Hamilton Place, London, W1J 7QY, United Kingdom, London, England W1J 7QY, GBR"
2929170000000.0,M by Montcalm Shoreditch London Tech City,GB,London,51.5278465,-0.0889473,"157 City Road, London, EC1V 1AR, United Kingdom, London, England EC1V 1AR, GBR"
2980710000000.0,The Franklin Hotel Starhotels Collezione,GB,London,51.4960283,-0.1686355,"24 Egerton Gardens, London, SW3 2DB, United Kingdom, London, England SW3 2DB, GBR"
3049430000000.0,The Beaufort,GB,London,51.4978466,-0.164156,"SW3 1PP, London, England, United Kingdom, London, England SW3 1PP, GBR"
3058020000000.0,The Marylebone Hotel,GB,London,51.5180207,-0.1500567,"47 Welbeck Street, London, W1G 9, United Kingdom, London, England W1G 9, GBR"
3066610000000.0,The Tophams Hotel,GB,London,51.4957436,-0.1477528,"28 Ebury Street, London, SW1W 0, United Kingdom, London, England SW1W 0, GBR"
3083790000000.0,Grosvenor House Suites by Jumeirah Living,GB,London,51.509841,-0.1552193,"90 Park Lane, London, W1K 7, United Kingdom, London, England W1K 7, GBR"
3109560000000.0,The Piccadilly London West End,GB,London,51.5121957,-0.1318384,"W1D 6EX, London, England, United Kingdom, London, England W1D 6EX, GBR"
3118150000000.0,Radisson Blu Edwardian Bloomsbury Street,GB,London,51.517608,-0.1276253,"13 Bloomsbury Street, London, WC1B 3, United Kingdom, London, England WC1B 3, GBR"
3143920000000.0,The Montcalm Marble Arch,GB,London,51.5150522,-0.159239,"W1H 7TN, London, England, United Kingdom, London, England W1H 7TN, GBR"
3152510000000.0,The Nadler Soho,GB,London,51.5147387,-0.1341108,"10 Carlisle Street, London, W1D 3BR, United Kingdom, London, England W1D 3BR, GBR"
3178280000000.0,Pestana Chelsea Bridge Hotel Spa,GB,London,51.4815995,-0.1481053,"Sopwith Way, London, SW11 8, United Kingdom, London, England SW11 8, GBR"
3264180000000.0,Holiday Inn London Mayfair,GB,London,51.507746,-0.1422993,"W1J 8DL, London, England, United Kingdom, London, England W1J 8DL, GBR"
3324300000000.0,The Cavendish London,GB,London,51.5077459,-0.1378733,"16 Duke Street St James's, London, SW1Y 6DF, United Kingdom, London, England SW1Y 6DF, GBR"
3332890000000.0,Four Seasons Hotel London at Park Lane,GB,London,51.504439,-0.149911,"4 Hamilton Place, London, W1J 7BQ, United Kingdom, London, England W1J 7BQ, GBR"
3358660000000.0,Hotel La Place,GB,London,51.5215257,-0.1533039,"17 Nottingham Place, London, W1U 5LG, United Kingdom, London, England W1U 5LG, GBR"
3367250000000.0,Hilton London Wembley,GB,London,51.5576962,-0.2835263,"6 Lakeside Way, Wembley, HA9 0BU, United Kingdom, Wembley, England HA9 0BU, GBR"
3384430000000.0,Good Hotel London,GB,London,51.5084195,0.0253216,"Western Gateway, London, E16 1, United Kingdom, London, England E16 1, GBR"
3401610000000.0,Rocco Forte Brown s Hotel,GB,London,51.5090558,-0.1421661,"W1S 4BP, London, England, United Kingdom, London, England W1S 4BP, GBR"
1717990000000.0,London Bridge Hotel,GB,London,51.5052188,-0.088166,"10-18 London Bridge Street, London, SE1 9, United Kingdom, London, England SE1 9, GBR"
1726580000000.0,London Marriott Maida Vale,GB,London,51.5357597,-0.1902591,"NW6 5RP, London, England, United Kingdom, London, England NW6 5RP, GBR"
1743760000000.0,Grange White Hall Hotel,GB,London,51.5203469,-0.1260893,"9 Montague Street, London, WC1B 5, United Kingdom, London, England WC1B 5, GBR"
1812480000000.0,Staunton Hotel B B,GB,London,51.520378,-0.1303414,"13-15 Gower Street, London, WC1E 6, United Kingdom, London, England WC1E 6, GBR"
1812480000000.0,COMO The Halkin,GB,London,51.4988977,-0.1562015,"SW1X 8JS, London, England, United Kingdom, London, England SW1X 8JS, GBR"
1821070000000.0,DoubleTree by Hilton London Victoria,GB,London,51.49398,-0.143372,"SW1V 1QA, London, England, United Kingdom, London, England SW1V 1QA, GBR"
1829660000000.0,The Queens Gate Hotel,GB,London,51.4981225,-0.1799693,"34 Queen's Gate, London, SW7 2, United Kingdom, London, England SW7 2, GBR"
1864020000000.0,Park Avenue Baker Street,GB,London,51.5241452,-0.1609907,"173 Gloucester Place, London, NW1 6DX, United Kingdom, London, England NW1 6DX, GBR"
1872610000000.0,One Aldwych,GB,London,51.5117832,-0.1194172,"1 Aldwych, London, WC2R 0, United Kingdom, London, England WC2R 0, GBR"
1881200000000.0,Hotel Cafe Royal,GB,London,51.5100916,-0.1359431,"68 Regent Street, London, W1B 0DD, United Kingdom, London, England W1B 0DD, GBR"
1898380000000.0,The Chesterfield Mayfair,GB,London,51.5076899,-0.1471358,"34 Charles Street, London, W1J 5, United Kingdom, London, England W1J 5, GBR"
2010040000000.0,The London EDITION,GB,London,51.5167472,-0.135965,"12 Berners Place, London, W1T 3NP, United Kingdom, London, England W1T 3NP, GBR"
2018630000000.0,Georgian House Hotel,GB,London,51.490724,-0.143868,"37 St George's Drive, London, SW1V 4, United Kingdom, London, England SW1V 4, GBR"
2035810000000.0,Rosewood London,GB,London,51.5173303,-0.1180966,"WC1V 7EN, London, England, United Kingdom, London, England WC1V 7EN, GBR"
2104530000000.0,Thistle Hyde Park,GB,London,51.5112451,-0.1808938,"90-92 Lancaster Gate, London, W2 3, United Kingdom, London, England W2 3, GBR"
2121710000000.0,Hilton London Green Park,GB,London,51.5064534,-0.1456146,"W1J 7BN, London, England, United Kingdom, London, England W1J 7BN, GBR"
2156070000000.0,88 Studios,GB,London,51.4992789,-0.2090733,"86 Holland Road, London, W14 8BN, United Kingdom, London, England W14 8BN, GBR"
2181840000000.0,Grange Rochester Hotel,GB,London,51.4942654,-0.1366026,"69 Vincent Square, London, SW1P 1, United Kingdom, London, England SW1P 1, GBR"
2233380000000.0,ME London by Melia,GB,London,51.511879,-0.118552,"336-337 Strand, London, WC2R 1, United Kingdom, London, England WC2R 1, GBR"
2267740000000.0,Club Quarters Hotel St Paul s,GB,London,51.5139298,-0.101126,"EC4M 7DR, London, England, United Kingdom, London, England EC4M 7DR, GBR"
2267740000000.0,Club Quarters Hotel Gracechurch,GB,London,51.5127964,-0.0847973,"1 Corbet Court, London, EC3V 0DR, United Kingdom, London, England EC3V 0DR, GBR"
2267740000000.0,Ten Manchester Street Hotel,GB,London,51.5188,-0.153839,"10 Manchester Street, London, W1U 4DG, United Kingdom, London, England W1U 4DG, GBR"
2293510000000.0,The Kensington Hotel,GB,London,51.4925478,-0.1780611,"109-113 Queen's Gate, London, SW7 3, United Kingdom, London, England SW7 3, GBR"
2302100000000.0,Park International Hotel,GB,London,51.4945144,-0.1866172,"117 Cromwell Road, London, SW7 4DS, United Kingdom, London, England SW7 4DS, GBR"
2327870000000.0,The Connaught,GB,London,51.5101556,-0.1496314,"10 Mount Street, London, W1K 2, United Kingdom, London, England W1K 2, GBR"
2345050000000.0,The Chelsea Harbour Hotel,GB,London,51.4756558,-0.1813888,"Battersea Church Road, London, SW10 0, United Kingdom, London, England SW10 0, GBR"
2370820000000.0,The Academy,GB,London,51.5205441,-0.1308091,"21 Gower Street, London, WC1E 6, United Kingdom, London, England WC1E 6, GBR"
2379410000000.0,Holiday Inn London Bloomsbury,GB,London,51.5241248,-0.1258066,"54 Herbrand Street, London, WC1N 1HD, United Kingdom, London, England WC1N 1HD, GBR"
2388000000000.0,Lansbury Heritage Hotel,GB,London,51.5090985,-0.0157302,"117 Poplar High Street, London, E14 0AE, United Kingdom, London, England E14 0AE, GBR"
2396590000000.0,DoubleTree by Hilton Hotel London Marble Arch,GB,London,51.514573,-0.15666,"W1H 7BY, London, England, United Kingdom, London, England W1H 7BY, GBR"
2396590000000.0,Amba Hotel Charing Cross,GB,London,51.508236,-0.1261963,"455 Strand, London, WC2N 4, United Kingdom, London, England WC2N 4, GBR"
2413770000000.0,Hilton London Angel Islington,GB,London,51.5360906,-0.1048176,"17 Barford Street, London, N1 0QB, United Kingdom, London, England N1 0QB, GBR"
2422360000000.0,Shepherd s Bush Boutique Hotel,GB,London,51.5054544,-0.2262216,"202 Uxbridge Road, London, W12 7JP, United Kingdom, London, England W12 7JP, GBR"
2422360000000.0,Charlotte Street Hotel,GB,London,51.5184158,-0.1348509,"13 Charlotte Street, London, W1T 2, United Kingdom, London, England W1T 2, GBR"
2473900000000.0,Rafayel Hotel Spa,GB,London,51.4703604,-0.1779869,"34 Lombard Road, London, SW11 3RF, United Kingdom, London, England SW11 3RF, GBR"
2491080000000.0,Novotel London Tower Bridge,GB,London,51.5106538,-0.0773676,"10 Pepys Street, London, EC3N 2, United Kingdom, London, England EC3N 2, GBR"
2508260000000.0,The Montague On The Gardens,GB,London,51.520181,-0.1256957,"14 Montague Street, London, WC1B 5, United Kingdom, London, England WC1B 5, GBR"
2525440000000.0,The Lanesborough,GB,London,51.50303,-0.15242,"London, SW1X 7, United Kingdom, London, England SW1X 7, GBR"
2568390000000.0,Thistle Holborn The Kingsley,GB,London,51.5179659,-0.1234343,"15 Bloomsbury Way, London, WC1A 2, United Kingdom, London, England WC1A 2, GBR"
2585570000000.0,The Lodge Hotel Putney,GB,London,51.4572991,-0.2055425,"1 Upper Richmond Road, London, SW15 2, United Kingdom, London, England SW15 2, GBR"
2602750000000.0,Blakes Hotel,GB,London,51.4892447,-0.1803196,"31 Roland Gardens, London, SW7 3PF, United Kingdom, London, England SW7 3PF, GBR"
2611340000000.0,The Capital,GB,London,51.4997486,-0.1615242,"Rysbrack Street, London, SW3 1, United Kingdom, London, England SW3 1, GBR"
2628520000000.0,Durrants Hotel,GB,London,51.5179386,-0.1529794,"24 George Street, London, W1U 3QZ, United Kingdom, London, England W1U 3QZ, GBR"
2654290000000.0,Crowne Plaza London The City,GB,London,51.5122429,-0.1045036,"19 New Bridge Street, London, EC4V 6DB, United Kingdom, London, England EC4V 6DB, GBR"
2680060000000.0,Grange City Hotel,GB,London,51.5110114,-0.0771251,"Cooper's Row, London, EC3N 2, United Kingdom, London, England EC3N 2, GBR"
2688650000000.0,Great Northern Hotel A Tribute Portfolio Hotel London,GB,London,51.531427,-0.126133,"N1C 4QL, London, England, United Kingdom, London, England N1C 4QL, GBR"
2705830000000.0,Dukes Hotel,GB,London,51.5055381,-0.1396885,"30 St James's Place, London, SW1A 1NR, United Kingdom, London, England SW1A 1NR, GBR"
2723010000000.0,The Hari London,GB,London,51.4973203,-0.1562558,"20 Chesham Place, London, SW1X 8HQ, United Kingdom, London, England SW1X 8HQ, GBR"
2748780000000.0,Holiday Inn London Stratford City,GB,London,51.5426054,-0.0072708,"145 The Street, London, E20 1EH, United Kingdom, London, England E20 1EH, GBR"
2757370000000.0,Kensington House Hotel,GB,London,51.5012329,-0.1859937,"6 Prince of Wales Terrace, London, W8 5, United Kingdom, London, England W8 5, GBR"
2765960000000.0,Park Plaza London Riverbank,GB,London,51.4913737,-0.1214194,"SE1 7TJ, London, England, United Kingdom, London, England SE1 7TJ, GBR"
2774550000000.0,Eccleston Square Hotel,GB,London,51.4911924,-0.1449474,"37 Eccleston Square, London, SW1P 4, United Kingdom, London, England SW1P 4, GBR"
2817500000000.0,Rathbone,GB,London,51.5186801,-0.1354055,"30 Rathbone Street, London, W1T 1, United Kingdom, London, England W1T 1, GBR"
2851860000000.0,The Rockwell,GB,London,51.4948059,-0.1926525,"SW5 0SS, London, England, United Kingdom, London, England SW5 0SS, GBR"
2851860000000.0,Gainsborough Hotel,GB,London,51.4948416,-0.1772056,"11 Queensberry Place, London, SW7 2DW, United Kingdom, London, England SW7 2DW, GBR"
2894810000000.0,DoubleTree by Hilton London Chelsea,GB,London,51.475172,-0.1870629,"Imperial Road, London, SW6 2, United Kingdom, London, England SW6 2, GBR"
2929170000000.0,The Gore Hotel Starhotels Collezione,GB,London,51.5001979,-0.1795357,"SW7 5EX, London, England, United Kingdom, London, England SW7 5EX, GBR"
2937760000000.0,Novotel London Wembley,GB,London,51.5611271,-0.2787261,"23 Fulton Road, Wembley, HA9 0, United Kingdom, Wembley, England HA9 0, GBR"
2954940000000.0,Shaftesbury Suites London Marble Arch,GB,London,51.515755,-0.1603335,"41 Great Cumberland Place, London, W1H 7DQ, United Kingdom, London, England W1H 7DQ, GBR"
3006480000000.0,The Colonnade,GB,London,51.5243286,-0.1846623,"2 Warrington Crescent, London, W9 1, United Kingdom, London, England W9 1, GBR"
3023660000000.0,The Leonard Hotel,GB,London,51.5147071,-0.1578291,"13 Seymour Street, London, W1H 7, United Kingdom, London, England W1H 7, GBR"
3032250000000.0,Best Western PLUS Epping Forest,GB,London,51.603207,0.010607,"28 Oak Hill, Woodford Green, IG8 9, United Kingdom, Woodford Green, England IG8 9, GBR"
3049430000000.0,Pullman London St Pancras,GB,London,51.5286766,-0.1283489,"Ossulston Street, London, NW1 2, United Kingdom, London, England NW1 2, GBR"
3075200000000.0,citizenM London Bankside,GB,London,51.5051507,-0.1004724,"Lavington Street, London, SE1 0, United Kingdom, London, England SE1 0, GBR"
3083790000000.0,Aloft London Excel,GB,London,51.5083719,0.0355768,"Eastern Gateway, London, E16 1, United Kingdom, London, England E16 1, GBR"
3092380000000.0,Novotel London Canary Wharf,GB,London,51.5011704,-0.0232607,"63 Manilla Street, London, E14 8, United Kingdom, London, England E14 8, GBR"
3109560000000.0,Danubius Hotel Regents Park,GB,London,51.529257,-0.168358,"NW8 7JT, London, England, United Kingdom, London, England NW8 7JT, GBR"
3126740000000.0,Clayton Hotel Chiswick,GB,London,51.4924184,-0.2784701,"626 Chiswick High Road, London, W4 5RY, United Kingdom, London, England W4 5RY, GBR"
